{
  "norad_id": 63272,
  "name": "STARLINK-11619 [DTC]",
  "history": [
    {
      "epoch": "2026-03-28T19:03:05.384448",
      "apogee_km": 357.00545049754146,
      "perigee_km": 355.41358566759664,
      "latitude_deg": 16.922098911736924,
      "longitude_deg": -136.59401728003286,
      "semi_major_axis_km": 6734.346518082569,
      "eccentricity": 0.00011819,
      "inclination_deg": 43.0018,
      "raan_deg": 357.113,
      "arg_perigee_deg": 249.063,
      "mean_anomaly_deg": 111.0112,
      "mean_motion_rev_day": 15.70939909
    }
  ]
}