{"fetched_at":"2026-03-29T16:36:15Z","count":15609,"tles":[{"name":"STARLINK-11619 [DTC]","line1":"1 63272U 25053H   26087.79381232  .00218676  00000+0  16563-2 0  9995","line2":"2 63272  43.0018 357.1130 0001181 249.0630 111.0112 15.70939909 60671","category":"Starlink"}]}